{
  "type": "FeatureCollection",
  "features": [
    {
      "type": "Feature",
      "properties": {
        "norad_id": 44873,
        "name": "CSG-1",
        "group": "resource",
        "lat": 61.59608911987384,
        "lon": -5.469615008345519,
        "alt_km": 615.6915401271799,
        "timestamp": "2025-12-04T05:42:43.035673+00:00",
        "meta_object_name": "CSG-1",
        "meta_object_id": "2019-092A",
        "meta_epoch": "2025-12-04T00:19:25.599072",
        "meta_mean_motion": 14.82144954,
        "meta_eccentricity": 0.00014726,
        "meta_inclination": 97.8806,
        "meta_ra_of_asc_node": 159.469,
        "meta_arg_of_pericenter": 86.9899,
        "meta_mean_anomaly": 273.1483,
        "meta_ephemeris_type": 0,
        "meta_classification_type": "U",
        "meta_norad_cat_id": 44873,
        "meta_element_set_no": 999,
        "meta_rev_at_epoch": 32256,
        "meta_bstar": 0.00014123099,
        "meta_mean_motion_dot": 1.072e-05,
        "meta_mean_motion_ddot": 0,
        "tle_line1": "1 44873U 19092A   25338.01349073  .00001072  00000+0  14123-3 0  9998",
        "tle_line2": "2 44873  97.8806 159.4690 0001472  86.9899 273.1483 14.82144954322561"
      },
      "geometry": {
        "type": "Point",
        "coordinates": [
          -5.469615008345519,
          61.59608911987384
        ]
      }
    },
    {
      "type": "Feature",
      "properties": {
        "norad_id": 46277,
        "name": "NEMO-HD",
        "group": "resource",
        "lat": -56.59445509029962,
        "lon": 48.53337417061053,
        "alt_km": 453.93945304341105,
        "timestamp": "2025-12-04T05:42:43.035683+00:00",
        "meta_object_name": "NEMO-HD",
        "meta_object_id": "2020-061F",
        "meta_epoch": "2025-12-03T22:09:48.062880",
        "meta_mean_motion": 15.40047504,
        "meta_eccentricity": 0.00023445,
        "meta_inclination": 97.2231,
        "meta_ra_of_asc_node": 37.1355,
        "meta_arg_of_pericenter": 67.3831,
        "meta_mean_anomaly": 292.7663,
        "meta_ephemeris_type": 0,
        "meta_classification_type": "U",
        "meta_norad_cat_id": 46277,
        "meta_element_set_no": 999,
        "meta_rev_at_epoch": 29188,
        "meta_bstar": 0.00049768842,
        "meta_mean_motion_dot": 0.00019834,
        "meta_mean_motion_ddot": 0,
        "tle_line1": "1 46277U 20061F   25337.92347295  .00019834  00000+0  49769-3 0  9998",
        "tle_line2": "2 46277  97.2231  37.1355 0002344  67.3831 292.7663 15.40047504291880"
      },
      "geometry": {
        "type": "Point",
        "coordinates": [
          48.53337417061053,
          -56.59445509029962
        ]
      }
    },
    {
      "type": "Feature",
      "properties": {
        "norad_id": 46984,
        "name": "SENTINEL-6A",
        "group": "resource",
        "lat": 37.28201637826716,
        "lon": -19.820090866102806,
        "alt_km": 1337.948717135083,
        "timestamp": "2025-12-04T05:42:43.035693+00:00",
        "meta_object_name": "SENTINEL-6A",
        "meta_object_id": "2020-086A",
        "meta_epoch": "2025-12-03T21:29:45.509568",
        "meta_mean_motion": 12.80930156,
        "meta_eccentricity": 0.00077375,
        "meta_inclination": 66.039,
        "meta_ra_of_asc_node": 180.6775,
        "meta_arg_of_pericenter": 269.1609,
        "meta_mean_anomaly": 90.852,
        "meta_ephemeris_type": 0,
        "meta_classification_type": "U",
        "meta_norad_cat_id": 46984,
        "meta_element_set_no": 999,
        "meta_rev_at_epoch": 23531,
        "meta_bstar": 0.00017950517,
        "meta_mean_motion_dot": -2e-07,
        "meta_mean_motion_ddot": 0,
        "tle_line1": "1 46984U 20086A   25337.89566562 -.00000020  00000+0  17951-3 0  9992",
        "tle_line2": "2 46984  66.0390 180.6775 0007737 269.1609  90.8520 12.80930156235311"
      },
      "geometry": {
        "type": "Point",
        "coordinates": [
          -19.820090866102806,
          37.28201637826716
        ]
      }
    },
    {
      "type": "Feature",
      "properties": {
        "norad_id": 48079,
        "name": "GAOFEN-12 02",
        "group": "resource",
        "lat": 61.912717000923465,
        "lon": -42.96390183930889,
        "alt_km": 619.8911427839475,
        "timestamp": "2025-12-04T05:42:43.035703+00:00",
        "meta_object_name": "GAOFEN-12 02",
        "meta_object_id": "2021-026A",
        "meta_epoch": "2025-12-03T22:56:27.538656",
        "meta_mean_motion": 14.80658357,
        "meta_eccentricity": 0.00032798,
        "meta_inclination": 97.9849,
        "meta_ra_of_asc_node": 332.0049,
        "meta_arg_of_pericenter": 118.5702,
        "meta_mean_anomaly": 241.5841,
        "meta_ephemeris_type": 0,
        "meta_classification_type": "U",
        "meta_norad_cat_id": 48079,
        "meta_element_set_no": 999,
        "meta_rev_at_epoch": 25287,
        "meta_bstar": 0.00012805909,
        "meta_mean_motion_dot": 9.31e-06,
        "meta_mean_motion_ddot": 0,
        "tle_line1": "1 48079U 21026A   25337.95587429  .00000931  00000+0  12806-3 0  9990",
        "tle_line2": "2 48079  97.9849 332.0049 0003279 118.5702 241.5841 14.80658357252878"
      },
      "geometry": {
        "type": "Point",
        "coordinates": [
          -42.96390183930889,
          61.912717000923465
        ]
      }
    },
    {
      "type": "Feature",
      "properties": {
        "norad_id": 48268,
        "name": "PLEIADES NEO 3",
        "group": "resource",
        "lat": 77.7564278871487,
        "lon": -89.44882172977711,
        "alt_km": 615.880869240852,
        "timestamp": "2025-12-04T05:42:43.035713+00:00",
        "meta_object_name": "PLEIADES NEO 3",
        "meta_object_id": "2021-034A",
        "meta_epoch": "2025-12-03T22:46:55.531776",
        "meta_mean_motion": 14.81671491,
        "meta_eccentricity": 0.00012848,
        "meta_inclination": 97.8948,
        "meta_ra_of_asc_node": 50.516,
        "meta_arg_of_pericenter": 90.3792,
        "meta_mean_anomaly": 269.7568,
        "meta_ephemeris_type": 0,
        "meta_classification_type": "U",
        "meta_norad_cat_id": 48268,
        "meta_element_set_no": 999,
        "meta_rev_at_epoch": 24874,
        "meta_bstar": -1.86437e-06,
        "meta_mean_motion_dot": -6.7e-07,
        "meta_mean_motion_ddot": 0,
        "tle_line1": "1 48268U 21034A   25337.94925384 -.00000067  00000+0 -18644-5 0  9994",
        "tle_line2": "2 48268  97.8948  50.5160 0001284  90.3792 269.7568 14.81671491248747"
      },
      "geometry": {
        "type": "Point",
        "coordinates": [
          -89.44882172977711,
          77.7564278871487
        ]
      }
    },
    {
      "type": "Feature",
      "properties": {
        "norad_id": 49070,
        "name": "PLEIADES NEO 4",
        "group": "resource",
        "lat": -77.74153882758266,
        "lon": 90.48802726839408,
        "alt_km": 632.3105925678638,
        "timestamp": "2025-12-04T05:42:43.035723+00:00",
        "meta_object_name": "PLEIADES NEO 4",
        "meta_object_id": "2021-073E",
        "meta_epoch": "2025-12-03T21:58:17.128128",
        "meta_mean_motion": 14.81671959,
        "meta_eccentricity": 0.00013149,
        "meta_inclination": 97.8949,
        "meta_ra_of_asc_node": 50.4786,
        "meta_arg_of_pericenter": 97.6472,
        "meta_mean_anomaly": 262.489,
        "meta_ephemeris_type": 0,
        "meta_classification_type": "U",
        "meta_norad_cat_id": 49070,
        "meta_element_set_no": 999,
        "meta_rev_at_epoch": 23245,
        "meta_bstar": 2.756036e-06,
        "meta_mean_motion_dot": -3e-07,
        "meta_mean_motion_ddot": 0,
        "tle_line1": "1 49070U 21073E   25337.91547602 -.00000030  00000+0  27560-5 0  9995",
        "tle_line2": "2 49070  97.8949  50.4786 0001314  97.6472 262.4890 14.81671959232450"
      },
      "geometry": {
        "type": "Point",
        "coordinates": [
          90.48802726839408,
          -77.74153882758266
        ]
      }
    },
    {
      "type": "Feature",
      "properties": {
        "norad_id": 49260,
        "name": "LANDSAT 9",
        "group": "resource",
        "lat": -33.300866816346186,
        "lon": 51.914011364074895,
        "alt_km": 709.0876959037214,
        "timestamp": "2025-12-04T05:42:43.035733+00:00",
        "meta_object_name": "LANDSAT 9",
        "meta_object_id": "2021-088A",
        "meta_epoch": "2025-12-03T18:19:47.348544",
        "meta_mean_motion": 14.57115156,
        "meta_eccentricity": 0.00010677,
        "meta_inclination": 98.2103,
        "meta_ra_of_asc_node": 46.0043,
        "meta_arg_of_pericenter": 92.7732,
        "meta_mean_anomaly": 267.3589,
        "meta_ephemeris_type": 0,
        "meta_classification_type": "U",
        "meta_norad_cat_id": 49260,
        "meta_element_set_no": 999,
        "meta_rev_at_epoch": 22254,
        "meta_bstar": 0.0001715529,
        "meta_mean_motion_dot": 7.28e-06,
        "meta_mean_motion_ddot": 0,
        "tle_line1": "1 49260U 21088A   25337.76374246  .00000728  00000+0  17155-3 0  9997",
        "tle_line2": "2 49260  98.2103  46.0043 0001067  92.7732 267.3589 14.57115156222548"
      },
      "geometry": {
        "type": "Point",
        "coordinates": [
          51.914011364074895,
          -33.300866816346186
        ]
      }
    }
  ]
}